[{"OBJECT_NAME":"AMC-1 (GE-1)","OBJECT_ID":"1996-054A","EPOCH":"2022-08-18T14:41:19.086144","MEAN_MOTION":1.00271012,"ECCENTRICITY":0.0003096,"INCLINATION":5.763,"RA_OF_ASC_NODE":72.6328,"ARG_OF_PERICENTER":82.978,"MEAN_ANOMALY":260.7571,"EPHEMERIS_TYPE":0,"CLASSIFICATION_TYPE":"U","NORAD_CAT_ID":24315,"ELEMENT_SET_NO":999,"REV_AT_EPOCH":3229,"BSTAR":0,"MEAN_MOTION_DOT":5.5e-7,"MEAN_MOTION_DDOT":0},{"OBJECT_NAME":"AMC-3 (GE-3)","OBJECT_ID":"1997-050A","EPOCH":"2022-08-18T12:32:42.621792","MEAN_MOTION":1.00271513,"ECCENTRICITY":0.000291,"INCLINATION":4.693,"RA_OF_ASC_NODE":78.9153,"ARG_OF_PERICENTER":80.0711,"MEAN_ANOMALY":284.0349,"EPHEMERIS_TYPE":0,"CLASSIFICATION_TYPE":"U","NORAD_CAT_ID":24936,"ELEMENT_SET_NO":999,"REV_AT_EPOCH":3841,"BSTAR":0,"MEAN_MOTION_DOT":-2.7e-6,"MEAN_MOTION_DDOT":0},{"OBJECT_NAME":"ASTRA 1G","OBJECT_ID":"1997-076A","EPOCH":"2022-08-18T20:44:27.666240","MEAN_MOTION":1.0027094,"ECCENTRICITY":0.0003461,"INCLINATION":6.3835,"RA_OF_ASC_NODE":67.8184,"ARG_OF_PERICENTER":83.3517,"MEAN_ANOMALY":146.5181,"EPHEMERIS_TYPE":0,"CLASSIFICATION_TYPE":"U","NORAD_CAT_ID":25071,"ELEMENT_SET_NO":999,"REV_AT_EPOCH":9048,"BSTAR":0,"MEAN_MOTION_DOT":1.05e-6,"MEAN_MOTION_DDOT":0},{"OBJECT_NAME":"ASTRA 2A","OBJECT_ID":"1998-050A","EPOCH":"2022-08-18T21:11:42.527904","MEAN_MOTION":1.00273876,"ECCENTRICITY":0.0002133,"INCLINATION":3.5562,"RA_OF_ASC_NODE":84.9241,"ARG_OF_PERICENTER":75.9611,"MEAN_ANOMALY":181.4466,"EPHEMERIS_TYPE":0,"CLASSIFICATION_TYPE":"U","NORAD_CAT_ID":25462,"ELEMENT_SET_NO":999,"REV_AT_EPOCH":3231,"BSTAR":0,"MEAN_MOTION_DOT":6.0e-7,"MEAN_MOTION_DDOT":0},{"OBJECT_NAME":"AMC-4 (GE-4)","OBJECT_ID":"1999-060A","EPOCH":"2022-08-18T18:10:54.955200","MEAN_MOTION":1.00271903,"ECCENTRICITY":0.0003053,"INCLINATION":1.6726,"RA_OF_ASC_NODE":91.1803,"ARG_OF_PERICENTER":68.6724,"MEAN_ANOMALY":305.0476,"EPHEMERIS_TYPE":0,"CLASSIFICATION_TYPE":"U","NORAD_CAT_ID":25954,"ELEMENT_SET_NO":999,"REV_AT_EPOCH":2953,"BSTAR":0,"MEAN_MOTION_DOT":8.0e-7,"MEAN_MOTION_DDOT":0},{"OBJECT_NAME":"NSS-11 (AAP-1)","OBJECT_ID":"2000-059A","EPOCH":"2022-08-18T17:56:51.134784","MEAN_MOTION":1.00272307,"ECCENTRICITY":0.0001987,"INCLINATION":0.0554,"RA_OF_ASC_NODE":287.0486,"ARG_OF_PERICENTER":214.6971,"MEAN_ANOMALY":270.5362,"EPHEMERIS_TYPE":0,"CLASSIFICATION_TYPE":"U","NORAD_CAT_ID":26554,"ELEMENT_SET_NO":999,"REV_AT_EPOCH":2726,"BSTAR":0,"MEAN_MOTION_DOT":1.8e-7,"MEAN_MOTION_DDOT":0},{"OBJECT_NAME":"AMC-6 (GE-6)","OBJECT_ID":"2000-067A","EPOCH":"2022-08-19T05:06:07.241184","MEAN_MOTION":1.00273454,"ECCENTRICITY":0.0002583,"INCLINATION":0.0405,"RA_OF_ASC_NODE":284.4796,"ARG_OF_PERICENTER":225.3995,"MEAN_ANOMALY":115.1757,"EPHEMERIS_TYPE":0,"CLASSIFICATION_TYPE":"U","NORAD_CAT_ID":26580,"ELEMENT_SET_NO":999,"REV_AT_EPOCH":7996,"BSTAR":0,"MEAN_MOTION_DOT":9.8e-7,"MEAN_MOTION_DDOT":0},{"OBJECT_NAME":"ASTRA 2D","OBJECT_ID":"2000-081A","EPOCH":"2022-08-18T17:27:42.703776","MEAN_MOTION":1.00275483,"ECCENTRICITY":0.0001839,"INCLINATION":7.4204,"RA_OF_ASC_NODE":59.8815,"ARG_OF_PERICENTER":97.3663,"MEAN_ANOMALY":95.4396,"EPHEMERIS_TYPE":0,"CLASSIFICATION_TYPE":"U","NORAD_CAT_ID":26638,"ELEMENT_SET_NO":999,"REV_AT_EPOCH":3888,"BSTAR":0,"MEAN_MOTION_DOT":1.19e-6,"MEAN_MOTION_DDOT":0},{"OBJECT_NAME":"AMC-8 (GE-8)","OBJECT_ID":"2000-081B","EPOCH":"2022-08-18T14:33:40.139712","MEAN_MOTION":1.00272778,"ECCENTRICITY":0.0002774,"INCLINATION":2.5982,"RA_OF_ASC_NODE":87.944,"ARG_OF_PERICENTER":29.3604,"MEAN_ANOMALY":293.0606,"EPHEMERIS_TYPE":0,"CLASSIFICATION_TYPE":"U","NORAD_CAT_ID":26639,"ELEMENT_SET_NO":999,"REV_AT_EPOCH":7930,"BSTAR":0,"MEAN_MOTION_DOT":7.9e-7,"MEAN_MOTION_DDOT":0},{"OBJECT_NAME":"ASTRA 2C","OBJECT_ID":"2001-025A","EPOCH":"2022-08-18T12:32:42.621792","MEAN_MOTION":1.00274685,"ECCENTRICITY":0.0002743,"INCLINATION":4.7171,"RA_OF_ASC_NODE":78.7211,"ARG_OF_PERICENTER":73.4541,"MEAN_ANOMALY":290.3696,"EPHEMERIS_TYPE":0,"CLASSIFICATION_TYPE":"U","NORAD_CAT_ID":26853,"ELEMENT_SET_NO":999,"REV_AT_EPOCH":3102,"BSTAR":0,"MEAN_MOTION_DOT":-2.69e-6,"MEAN_MOTION_DDOT":0},{"OBJECT_NAME":"ASTRA 3A","OBJECT_ID":"2002-015B","EPOCH":"2022-08-18T13:14:41.982720","MEAN_MOTION":1.00273622,"ECCENTRICITY":0.0001791,"INCLINATION":7.5213,"RA_OF_ASC_NODE":58.766,"ARG_OF_PERICENTER":112.8783,"MEAN_ANOMALY":267.1514,"EPHEMERIS_TYPE":0,"CLASSIFICATION_TYPE":"U","NORAD_CAT_ID":27400,"ELEMENT_SET_NO":999,"REV_AT_EPOCH":7470,"BSTAR":0,"MEAN_MOTION_DOT":-2.14e-6,"MEAN_MOTION_DDOT":0},{"OBJECT_NAME":"NSS-7","OBJECT_ID":"2002-019A","EPOCH":"2022-08-18T20:34:42.650112","MEAN_MOTION":1.00271849,"ECCENTRICITY":0.0002308,"INCLINATION":6.0406,"RA_OF_ASC_NODE":70.8016,"ARG_OF_PERICENTER":92.8805,"MEAN_ANOMALY":92.1891,"EPHEMERIS_TYPE":0,"CLASSIFICATION_TYPE":"U","NORAD_CAT_ID":27414,"ELEMENT_SET_NO":999,"REV_AT_EPOCH":7454,"BSTAR":0,"MEAN_MOTION_DOT":-1.67e-6,"MEAN_MOTION_DDOT":0},{"OBJECT_NAME":"NSS-6","OBJECT_ID":"2002-057A","EPOCH":"2022-08-18T13:31:10.352928","MEAN_MOTION":1.0027629,"ECCENTRICITY":0.0003435,"INCLINATION":1.7636,"RA_OF_ASC_NODE":90.9782,"ARG_OF_PERICENTER":66.6374,"MEAN_ANOMALY":202.5915,"EPHEMERIS_TYPE":0,"CLASSIFICATION_TYPE":"U","NORAD_CAT_ID":27603,"ELEMENT_SET_NO":999,"REV_AT_EPOCH":7201,"BSTAR":0,"MEAN_MOTION_DOT":1.0e-6,"MEAN_MOTION_DDOT":0},{"OBJECT_NAME":"AMC-11 (GE-11)","OBJECT_ID":"2004-017A","EPOCH":"2022-08-18T14:41:10.194720","MEAN_MOTION":1.00270336,"ECCENTRICITY":0.000272,"INCLINATION":0.0547,"RA_OF_ASC_NODE":289.1662,"ARG_OF_PERICENTER":214.8956,"MEAN_ANOMALY":272.1694,"EPHEMERIS_TYPE":0,"CLASSIFICATION_TYPE":"U","NORAD_CAT_ID":28252,"ELEMENT_SET_NO":999,"REV_AT_EPOCH":6685,"BSTAR":0,"MEAN_MOTION_DOT":6.2e-7,"MEAN_MOTION_DDOT":0},{"OBJECT_NAME":"AMC-15","OBJECT_ID":"2004-041A","EPOCH":"2022-08-18T15:26:47.520384","MEAN_MOTION":1.00272294,"ECCENTRICITY":0.0002997,"INCLINATION":0.0568,"RA_OF_ASC_NODE":289.002,"ARG_OF_PERICENTER":211.1003,"MEAN_ANOMALY":313.5091,"EPHEMERIS_TYPE":0,"CLASSIFICATION_TYPE":"U","NORAD_CAT_ID":28446,"ELEMENT_SET_NO":999,"REV_AT_EPOCH":6530,"BSTAR":0,"MEAN_MOTION_DOT":-9.5e-7,"MEAN_MOTION_DDOT":0},{"OBJECT_NAME":"NSS-10 (AMC-12)","OBJECT_ID":"2005-003A","EPOCH":"2022-08-18T20:22:12.497664","MEAN_MOTION":1.00271585,"ECCENTRICITY":0.0002787,"INCLINATION":2.9363,"RA_OF_ASC_NODE":86.7071,"ARG_OF_PERICENTER":54.1532,"MEAN_ANOMALY":94.4095,"EPHEMERIS_TYPE":0,"CLASSIFICATION_TYPE":"U","NORAD_CAT_ID":28526,"ELEMENT_SET_NO":999,"REV_AT_EPOCH":3913,"BSTAR":0,"MEAN_MOTION_DOT":-2.59e-6,"MEAN_MOTION_DDOT":0},{"OBJECT_NAME":"ASTRA 1KR","OBJECT_ID":"2006-012A","EPOCH":"2022-08-18T09:07:12.590976","MEAN_MOTION":1.00271481,"ECCENTRICITY":0.0004049,"INCLINATION":0.1022,"RA_OF_ASC_NODE":274.6208,"ARG_OF_PERICENTER":274.0236,"MEAN_ANOMALY":294.0479,"EPHEMERIS_TYPE":0,"CLASSIFICATION_TYPE":"U","NORAD_CAT_ID":29055,"ELEMENT_SET_NO":999,"REV_AT_EPOCH":5972,"BSTAR":0,"MEAN_MOTION_DOT":1.12e-6,"MEAN_MOTION_DDOT":0}]