AMC-1 (GE-1)            
1 24315U 96054A   22230.61202646  .00000055  00000+0  00000+0 0  9993
2 24315   5.7630  72.6328 0003096  82.9780 260.7571  1.00271012 32296
AMC-3 (GE-3)            
1 24936U 97050A   22230.52271553 -.00000270  00000+0  00000+0 0  9992
2 24936   4.6930  78.9153 0002910  80.0711 284.0349  1.00271513 38416
ASTRA 1G                
1 25071U 97076A   22230.86420910  .00000105  00000+0  00000+0 0  9997
2 25071   6.3835  67.8184 0003461  83.3517 146.5181  1.00270940 90487
ASTRA 2A                
1 25462U 98050A   22230.88313111  .00000060  00000+0  00000+0 0  9990
2 25462   3.5562  84.9241 0002133  75.9611 181.4466  1.00273876 32311
AMC-4 (GE-4)            
1 25954U 99060A   22230.75758050  .00000080  00000+0  00000+0 0  9991
2 25954   1.6726  91.1803 0003053  68.6724 305.0476  1.00271903 29532
NSS-11 (AAP-1)          
1 26554U 00059A   22230.74781406  .00000018  00000+0  00000+0 0  9999
2 26554   0.0554 287.0486 0001987 214.6971 270.5362  1.00272307 27262
AMC-6 (GE-6)            
1 26580U 00067A   22231.21258381  .00000098  00000+0  00000+0 0  9999
2 26580   0.0405 284.4796 0002583 225.3995 115.1757  1.00273454 79969
ASTRA 2D                
1 26638U 00081A   22230.72757759  .00000119  00000+0  00000+0 0  9991
2 26638   7.4204  59.8815 0001839  97.3663  95.4396  1.00275483 38888
AMC-8 (GE-8)            
1 26639U 00081B   22230.60671458  .00000079  00000+0  00000+0 0  9995
2 26639   2.5982  87.9440 0002774  29.3604 293.0606  1.00272778 79309
ASTRA 2C                
1 26853U 01025A   22230.52271553 -.00000269  00000+0  00000+0 0  9997
2 26853   4.7171  78.7211 0002743  73.4541 290.3696  1.00274685 31026
ASTRA 3A                
1 27400U 02015B   22230.55187480 -.00000214  00000+0  00000+0 0  9994
2 27400   7.5213  58.7660 0001791 112.8783 267.1514  1.00273622 74700
NSS-7                   
1 27414U 02019A   22230.85743808 -.00000167  00000+0  00000+0 0  9995
2 27414   6.0406  70.8016 0002308  92.8805  92.1891  1.00271849 74545
NSS-6                   
1 27603U 02057A   22230.56331427  .00000100  00000+0  00000+0 0  9991
2 27603   1.7636  90.9782 0003435  66.6374 202.5915  1.00276290 72016
AMC-11 (GE-11)          
1 28252U 04017A   22230.61192355  .00000062  00000+0  00000+0 0  9998
2 28252   0.0547 289.1662 0002720 214.8956 272.1694  1.00270336 66855
AMC-15                  
1 28446U 04041A   22230.64360556 -.00000095  00000+0  00000+0 0  9990
2 28446   0.0568 289.0020 0002997 211.1003 313.5091  1.00272294 65304
NSS-10 (AMC-12)         
1 28526U 05003A   22230.84875576 -.00000259  00000+0  00000+0 0  9995
2 28526   2.9363  86.7071 0002787  54.1532  94.4095  1.00271585 39137
ASTRA 1KR               
1 29055U 06012A   22230.38000684  .00000112  00000+0  00000+0 0  9990
2 29055   0.1022 274.6208 0004049 274.0236 294.0479  1.00271481 59720
